IRIDIUM 119             
1 42959U 17061E   26009.26378136  .00000024  00000+0  15379-5 0  9992
2 42959  86.3959  91.7118 0002036 104.1746 255.9677 14.34217650432038
IRIDIUM 107             
1 42960U 17061F   26009.28280997  .00000213  00000+0  68863-4 0  9998
2 42960  86.3961  91.7245 0002536  98.6166 261.5317 14.34217483432041
IRIDIUM 132             
1 42961U 17061G   26009.28915220  .00000098  00000+0  28062-4 0  9991
2 42961  86.3960  91.7024 0002236  97.8145 262.3304 14.34217764432048
IRIDIUM 136             
1 42962U 17061H   26009.32086514  .00000085  00000+0  23159-4 0  9990
2 42962  86.3960  91.6951 0002158  99.7683 260.3757 14.34217797432066
IRIDIUM 139             
1 42963U 17061J   26009.25743976  .00000114  00000+0  33715-4 0  9997
2 42963  86.3955  91.7811 0002312  95.3277 264.8183 14.34217225432068
IRIDIUM 125             
1 42964U 17061K   26009.31451855  .00000321  00000+0  10740-3 0  9999
2 42964  86.3963  91.8153 0002479 107.3335 252.8133 14.34216542432086
IRIDIUM 135             
1 43070U 17083A   26009.14911008  .00000188  00000+0  60104-4 0  9995
2 43070  86.3950  28.4800 0002149  90.2440 269.9002 14.34217287421356
IRIDIUM 138             
1 43071U 17083B   26009.31401801  .00000053  00000+0  12036-4 0  9992
2 43071  86.3966  28.0821 0002075 101.8071 258.3358 14.34217872421367
